{
  "type": "FeatureCollection",
  "features": [
    {
      "type": "Feature",
      "properties": {
        "norad_id": 30274,
        "name": "FENGYUN 1C DEB",
        "group": "fengyun-1c-debris",
        "lat": -75.05074105744946,
        "lon": -103.96291471608725,
        "alt_km": 725.4296437678513,
        "timestamp": "2025-12-11T08:58:27.398748+00:00",
        "meta_object_name": "FENGYUN 1C DEB",
        "meta_object_id": "1999-025YK",
        "meta_epoch": "2025-12-11T03:38:33.053280",
        "meta_mean_motion": 14.51575237,
        "meta_eccentricity": 0.0004803,
        "meta_inclination": 99.3011,
        "meta_ra_of_asc_node": 113.6559,
        "meta_arg_of_pericenter": 212.0338,
        "meta_mean_anomaly": 325.889,
        "meta_ephemeris_type": 0,
        "meta_classification_type": "U",
        "meta_norad_cat_id": 30274,
        "meta_element_set_no": 999,
        "meta_rev_at_epoch": 98187,
        "meta_bstar": 0.0041751,
        "meta_mean_motion_dot": 0.00016706,
        "meta_mean_motion_ddot": 0,
        "tle_line1": "1 30274U 99025YK  25345.15177145  .00016706  00000+0  41751-2 0  9990",
        "tle_line2": "2 30274  99.3011 113.6559 0004803 212.0338 325.8890 14.51575237981873"
      },
      "geometry": {
        "type": "Point",
        "coordinates": [
          -103.96291471608725,
          -75.05074105744946
        ]
      }
    },
    {
      "type": "Feature",
      "properties": {
        "norad_id": 30275,
        "name": "FENGYUN 1C DEB",
        "group": "fengyun-1c-debris",
        "lat": -60.15934254321024,
        "lon": -125.73613257603694,
        "alt_km": 730.2806762145601,
        "timestamp": "2025-12-11T08:58:27.398759+00:00",
        "meta_object_name": "FENGYUN 1C DEB",
        "meta_object_id": "1999-025YL",
        "meta_epoch": "2025-12-11T04:47:30.291360",
        "meta_mean_motion": 14.45251825,
        "meta_eccentricity": 0.0039921,
        "meta_inclination": 98.6276,
        "meta_ra_of_asc_node": 69.4342,
        "meta_arg_of_pericenter": 190.9579,
        "meta_mean_anomaly": 223.752,
        "meta_ephemeris_type": 0,
        "meta_classification_type": "U",
        "meta_norad_cat_id": 30275,
        "meta_element_set_no": 999,
        "meta_rev_at_epoch": 98062,
        "meta_bstar": 0.0037685,
        "meta_mean_motion_dot": 0.00013326,
        "meta_mean_motion_ddot": 0,
        "tle_line1": "1 30275U 99025YL  25345.19965615  .00013326  00000+0  37685-2 0  9998",
        "tle_line2": "2 30275  98.6276  69.4342 0039921 190.9579 223.7520 14.45251825980622"
      },
      "geometry": {
        "type": "Point",
        "coordinates": [
          -125.73613257603694,
          -60.15934254321024
        ]
      }
    },
    {
      "type": "Feature",
      "properties": {
        "norad_id": 30276,
        "name": "FENGYUN 1C DEB",
        "group": "fengyun-1c-debris",
        "lat": -80.78082161829518,
        "lon": 130.8530948777722,
        "alt_km": 827.163133706641,
        "timestamp": "2025-12-11T08:58:27.398769+00:00",
        "meta_object_name": "FENGYUN 1C DEB",
        "meta_object_id": "1999-025YM",
        "meta_epoch": "2025-12-09T15:18:54.545184",
        "meta_mean_motion": 14.26996246,
        "meta_eccentricity": 0.0025249,
        "meta_inclination": 98.859,
        "meta_ra_of_asc_node": 55.1699,
        "meta_arg_of_pericenter": 100.3655,
        "meta_mean_anomaly": 260.0373,
        "meta_ephemeris_type": 0,
        "meta_classification_type": "U",
        "meta_norad_cat_id": 30276,
        "meta_element_set_no": 999,
        "meta_rev_at_epoch": 97486,
        "meta_bstar": 0.002042,
        "meta_mean_motion_dot": 4.942e-05,
        "meta_mean_motion_ddot": 0,
        "tle_line1": "1 30276U 99025YM  25343.63813131  .00004942  00000+0  20420-2 0  9994",
        "tle_line2": "2 30276  98.8590  55.1699 0025249 100.3655 260.0373 14.26996246974860"
      },
      "geometry": {
        "type": "Point",
        "coordinates": [
          130.8530948777722,
          -80.78082161829518
        ]
      }
    },
    {
      "type": "Feature",
      "properties": {
        "norad_id": 30277,
        "name": "FENGYUN 1C DEB",
        "group": "fengyun-1c-debris",
        "lat": 46.01873453166253,
        "lon": 46.6143395928474,
        "alt_km": 905.7094222322185,
        "timestamp": "2025-12-11T08:58:27.398779+00:00",
        "meta_object_name": "FENGYUN 1C DEB",
        "meta_object_id": "1999-025YN",
        "meta_epoch": "2025-12-10T16:29:21.137280",
        "meta_mean_motion": 14.13560611,
        "meta_eccentricity": 0.01240522,
        "meta_inclination": 98.9728,
        "meta_ra_of_asc_node": 55.3481,
        "meta_arg_of_pericenter": 183.5544,
        "meta_mean_anomaly": 330.8335,
        "meta_ephemeris_type": 0,
        "meta_classification_type": "U",
        "meta_norad_cat_id": 30277,
        "meta_element_set_no": 999,
        "meta_rev_at_epoch": 96760,
        "meta_bstar": 0.002120832,
        "meta_mean_motion_dot": 4.258e-05,
        "meta_mean_motion_ddot": 0,
        "tle_line1": "1 30277U 99025YN  25344.68705020  .00004258  00000+0  21208-2 0  9993",
        "tle_line2": "2 30277  98.9728  55.3481 0124052 183.5544 330.8335 14.13560611967605"
      },
      "geometry": {
        "type": "Point",
        "coordinates": [
          46.6143395928474,
          46.01873453166253
        ]
      }
    },
    {
      "type": "Feature",
      "properties": {
        "norad_id": 30279,
        "name": "FENGYUN 1C DEB",
        "group": "fengyun-1c-debris",
        "lat": -11.271980288518934,
        "lon": 98.19493296352145,
        "alt_km": 882.5033087350475,
        "timestamp": "2025-12-11T08:58:27.398790+00:00",
        "meta_object_name": "FENGYUN 1C DEB",
        "meta_object_id": "1999-025YQ",
        "meta_epoch": "2025-12-10T14:21:29.632032",
        "meta_mean_motion": 14.23084927,
        "meta_eccentricity": 0.0219806,
        "meta_inclination": 99.1493,
        "meta_ra_of_asc_node": 279.2293,
        "meta_arg_of_pericenter": 78.7627,
        "meta_mean_anomaly": 98.6159,
        "meta_ephemeris_type": 0,
        "meta_classification_type": "U",
        "meta_norad_cat_id": 30279,
        "meta_element_set_no": 999,
        "meta_rev_at_epoch": 97580,
        "meta_bstar": 0.0010201,
        "meta_mean_motion_dot": 2.901e-05,
        "meta_mean_motion_ddot": 0,
        "tle_line1": "1 30279U 99025YQ  25344.59825963  .00002901  00000+0  10201-2 0  9998",
        "tle_line2": "2 30279  99.1493 279.2293 0219806  78.7627  98.6159 14.23084927975802"
      },
      "geometry": {
        "type": "Point",
        "coordinates": [
          98.19493296352145,
          -11.271980288518934
        ]
      }
    },
    {
      "type": "Feature",
      "properties": {
        "norad_id": 30280,
        "name": "FENGYUN 1C DEB",
        "group": "fengyun-1c-debris",
        "lat": 77.11314899822263,
        "lon": -67.63831351690744,
        "alt_km": 909.1106424575546,
        "timestamp": "2025-12-11T08:58:27.398800+00:00",
        "meta_object_name": "FENGYUN 1C DEB",
        "meta_object_id": "1999-025YR",
        "meta_epoch": "2025-12-10T18:00:22.749120",
        "meta_mean_motion": 13.98329083,
        "meta_eccentricity": 0.00805663,
        "meta_inclination": 98.7747,
        "meta_ra_of_asc_node": 334.226,
        "meta_arg_of_pericenter": 335.1815,
        "meta_mean_anomaly": 206.6915,
        "meta_ephemeris_type": 0,
        "meta_classification_type": "U",
        "meta_norad_cat_id": 30280,
        "meta_element_set_no": 999,
        "meta_rev_at_epoch": 96378,
        "meta_bstar": 0.00019789047,
        "meta_mean_motion_dot": 2.48e-06,
        "meta_mean_motion_ddot": 0,
        "tle_line1": "1 30280U 99025YR  25344.75026330  .00000248  00000+0  19789-3 0  9992",
        "tle_line2": "2 30280  98.7747 334.2260 0080566 335.1815 206.6915 13.98329083963786"
      },
      "geometry": {
        "type": "Point",
        "coordinates": [
          -67.63831351690744,
          77.11314899822263
        ]
      }
    },
    {
      "type": "Feature",
      "properties": {
        "norad_id": 30281,
        "name": "FENGYUN 1C DEB",
        "group": "fengyun-1c-debris",
        "lat": -60.47115619747907,
        "lon": 139.43161448500308,
        "alt_km": 844.6936565658352,
        "timestamp": "2025-12-11T08:58:27.398811+00:00",
        "meta_object_name": "FENGYUN 1C DEB",
        "meta_object_id": "1999-025YS",
        "meta_epoch": "2025-12-10T11:56:27.386016",
        "meta_mean_motion": 14.10472203,
        "meta_eccentricity": 0.00278711,
        "meta_inclination": 98.7566,
        "meta_ra_of_asc_node": 334.3676,
        "meta_arg_of_pericenter": 243.6578,
        "meta_mean_anomaly": 230.4068,
        "meta_ephemeris_type": 0,
        "meta_classification_type": "U",
        "meta_norad_cat_id": 30281,
        "meta_element_set_no": 999,
        "meta_rev_at_epoch": 97189,
        "meta_bstar": 0.00038499926,
        "meta_mean_motion_dot": 6.44e-06,
        "meta_mean_motion_ddot": 0,
        "tle_line1": "1 30281U 99025YS  25344.49753919  .00000644  00000+0  38500-3 0  9996",
        "tle_line2": "2 30281  98.7566 334.3676 0027871 243.6578 230.4068 14.10472203971890"
      },
      "geometry": {
        "type": "Point",
        "coordinates": [
          139.43161448500308,
          -60.47115619747907
        ]
      }
    }
  ]
}